{
    "links": {
        "self": "http://www.neowsapp.com/rest/v1/neo/3769396?api_key=iIulBulltgU6a56xZRHN4H3l9WmuAYTsLGpBGhQ2"
    },
    "id": "3769396",
    "neo_reference_id": "3769396",
    "name": "(2017 CL32)",
    "designation": "2017 CL32",
    "nasa_jpl_url": "http://ssd.jpl.nasa.gov/sbdb.cgi?sstr=3769396",
    "absolute_magnitude_h": 25.3,
    "estimated_diameter": {
        "kilometers": {
            "estimated_diameter_min": 0.0231502122,
            "estimated_diameter_max": 0.0517654482
        },
        "meters": {
            "estimated_diameter_min": 23.150212221,
            "estimated_diameter_max": 51.7654482198
        },
        "miles": {
            "estimated_diameter_min": 0.0143848705,
            "estimated_diameter_max": 0.0321655483
        },
        "feet": {
            "estimated_diameter_min": 75.9521422633,
            "estimated_diameter_max": 169.8341531374
        }
    },
    "is_potentially_hazardous_asteroid": false,
    "close_approach_data": [
        {
            "close_approach_date": "2017-01-31",
            "close_approach_date_full": "2017-Jan-31 04:20",
            "epoch_date_close_approach": 1485836400000,
            "relative_velocity": {
                "kilometers_per_second": "4.9453638709",
                "kilometers_per_hour": "17803.3099352424",
                "miles_per_hour": "11062.2844428177"
            },
            "miss_distance": {
                "astronomical": "0.1170230549",
                "lunar": "45.5219683561",
                "kilometers": "17506399.753933063",
                "miles": "10877972.3888117494"
            },
            "orbiting_body": "Earth"
        }
    ],
    "orbital_data": {
        "orbit_id": "2",
        "orbit_determination_date": "2017-04-06 08:20:12",
        "first_observation_date": "2017-02-03",
        "last_observation_date": "2017-02-16",
        "data_arc_in_days": 13,
        "observations_used": 10,
        "orbit_uncertainty": "9",
        "minimum_orbit_intersection": ".11552",
        "jupiter_tisserand_invariant": "4.678",
        "epoch_osculation": "2457788.5",
        "eccentricity": ".2245209174530807",
        "semi_major_axis": "1.416490776799657",
        "inclination": "8.972899451978726",
        "ascending_node_longitude": "134.7076419603169",
        "orbital_period": "615.7707471530857",
        "perihelion_distance": "1.098458968028771",
        "perihelion_argument": "348.4966857830789",
        "aphelion_distance": "1.734522585570543",
        "perihelion_time": "2457775.255573985066",
        "mean_anomaly": "7.743130682027799",
        "mean_motion": ".5846331636642379",
        "equinox": "J2000",
        "orbit_class": {
            "orbit_class_type": "AMO",
            "orbit_class_description": "Near-Earth asteroid orbits similar to that of 1221 Amor",
            "orbit_class_range": "1.017 AU < q (perihelion) < 1.3 AU"
        }
    },
    "is_sentry_object": false
}